STARLINK-2141           
1 47731U 21017K   25208.08813799 -.00000051  00000+0  15492-4 0  9996
2 47731  53.0547 144.3854 0001269  84.0702 276.0431 15.06401592243090
STARLINK-2142           
1 47732U 21017L   25208.25002315  .00243028  00000+0  16967-2 0  9998
2 47732  53.0471  36.4650 0010661 227.1680 290.7216 15.72990195244611
STARLINK-2143           
1 47733U 21017M   25208.07616001 -.00000162  00000+0  80426-5 0  9997
2 47733  53.0550 154.4359 0001331  92.6763 267.4378 15.06399404242956
STARLINK-2144           
1 47734U 21017N   25208.09551466  .00000116  00000+0  26693-4 0  9996
2 47734  53.0548 144.3480 0001392  89.6123 270.5026 15.06400723243098
STARLINK-2147           
1 47736U 21017Q   25207.79787950  .00000311  00000+0  39779-4 0  9999
2 47736  53.0552 135.6880 0001059  88.9652 271.1458 15.06396936243873
STARLINK-2150           
1 47739U 21017T   25208.12545820 -.00000236  00000+0  30527-5 0  9998
2 47739  53.0547 159.2159 0001458  84.9492 275.1663 15.06402186242890
STARLINK-2156           
1 47742U 21017W   25207.80156293 -.00001701  00000+0 -95310-4 0  9997
2 47742  53.0551 135.6728 0001545  87.7295 272.3871 15.06414931243878
STARLINK-2159           
1 47745U 21017Z   25207.83380733 -.00000770  00000+0 -32779-4 0  9996
2 47745  53.0561 145.5290 0001445  88.2288 271.8866 15.06400064243682
STARLINK-2160           
1 47746U 21017AA  25208.09181791 -.00001502  00000+0 -81941-4 0  9998
2 47746  53.0545 144.3673 0001237 100.9589 259.1539 15.06409602243090
STARLINK-2161           
1 47747U 21017AB  25208.08906066 -.00000365  00000+0 -56052-5 0  9990
2 47747  53.0549 134.3815 0001416  85.4534 274.6617 15.06400338243230
STARLINK-2162           
1 47748U 21017AC  25208.01534208 -.00000308  00000+0 -17938-5 0  9996
2 47748  53.0547 134.7103 0001358  86.4906 273.6238 15.06400099243223
STARLINK-2163           
1 47749U 21017AD  25208.16277901 -.00001261  00000+0 -65778-4 0  9990
2 47749  53.0552 134.0493 0001566 116.2601 243.8549 15.06404847243241
STARLINK-2164           
1 47750U 21017AE  25208.07431776 -.00000521  00000+0 -16095-4 0  9990
2 47750  53.0542 134.4446 0001447  90.8358 269.2796 15.06399225243236
STARLINK-2169           
1 47752U 21017AG  25208.07201567  .00000470  00000+0  50425-4 0  9991
2 47752  53.0546 139.4555 0001526  95.5713 264.5450 15.06401990243163
STARLINK-2170           
1 47753U 21017AH  25208.11394223 -.00000004  00000+0  18637-4 0  9992
2 47753  53.0547 144.2693 0001300  90.4234 269.6904 15.06401881243095
STARLINK-2171           
1 47754U 21017AJ  25208.08445552  .00000811  00000+0  73359-4 0  9998
2 47754  53.0548 144.4020 0001534  93.4026 266.7138 15.06404465243092
STARLINK-2178           
1 47760U 21017AQ  25208.16462600 -.00000372  00000+0 -60747-5 0  9999
2 47760  53.0538 154.0412 0001331  82.5712 277.5429 15.06400127242965
STARLINK-2180           
1 47762U 21017AS  25208.15494856  .00000515  00000+0  53476-4 0  9995
2 47762  53.0536 159.0918 0001329  64.1301 295.9825 15.06402763242892
STARLINK-2185           
1 47767U 21017AX  25208.11763378  .00002141  00000+0  16252-3 0  9991
2 47767  53.0543 144.2519 0001306  94.6803 265.4335 15.06408943243107
STARLINK-2193           
1 47770U 21017BA  25207.84349341 -.00002003  00000+0 -11566-3 0  9996
2 47770  53.0549 140.4807 0001305  99.0009 261.1128 15.06395395243784
STARLINK-2194           
1 47771U 21017BB  25208.18627641  .00000539  00000+0  55038-4 0  9990
2 47771  53.0548 138.9415 0001390  89.8803 270.2345 15.06406279243184
STARLINK-2195           
1 47772U 21017BC  25208.17568264 -.00000280  00000+0  10629-6 0  9998
2 47772  53.0550 153.9939 0001366  87.5732 272.5413 15.06400092242968
STARLINK-2196           
1 47773U 21017BD  25208.10565341 -.00001029  00000+0 -50219-4 0  9995
2 47773  53.0552 154.3080 0001527  92.7504 267.3660 15.06397578242956
STARLINK-2209           
1 47776U 21017BG  25208.13974271 -.00000323  00000+0 -27683-5 0  9993
2 47776  53.0554 144.1547 0001477  87.5904 272.5254 15.06410728243104
STARLINK-2211           
1 47778U 21017BJ  25208.11025600 -.00000405  00000+0 -82643-5 0  9994
2 47778  53.0544 144.2832 0001373  90.0098 270.1048 15.06402637243106
STARLINK-2213           
1 47780U 21017BL  25208.13605791 -.00000184  00000+0  65274-5 0  9998
2 47780  53.0543 144.1696 0001348  90.6196 269.4947 15.06399705243113
STARLINK-2257           
1 47787U 21018A   25207.92227527 -.00000365  00000+0 -56258-5 0  9993
2 47787  53.0539 185.1313 0001394  91.5547 268.5601 15.06396985242569
STARLINK-2314           
1 47788U 21018B   25207.86744669 -.00000960  00000+0 -45571-4 0  9994
2 47788  53.0548 160.3740 0001251  79.8039 280.3091 15.06399679242924
STARLINK-2315           
1 47789U 21018C   25208.18213151 -.00000316  00000+0 -23377-5 0  9994
2 47789  53.0537 163.9609 0001210  79.1364 280.9761 15.06400716242559
STARLINK-2319           
1 47790U 21018D   25207.82552037 -.00000387  00000+0 -70677-5 0  9998
2 47790  53.0558 155.5647 0001308  97.2430 262.8707 15.06397336242985
STARLINK-2322           
1 47791U 21018E   25207.64583756 -.00000046  00000+0  15774-4 0  9998
2 47791  53.0545 186.3720 0001268  77.2822 282.8308 15.06391962242533
STARLINK-2334           
1 47792U 21018F   25208.18950918 -.00001007  00000+0 -48692-4 0  9991
2 47792  53.0549 163.9303 0001177  71.8174 288.2943 15.06399788242545
STARLINK-2338           
1 47793U 21018G   25207.87251670  .00000084  00000+0  24526-4 0  9998
2 47793  53.0539 165.3521 0001534  87.6864 272.4300 15.06403869242831
STARLINK-2373           
1 47796U 21018K   25208.14530890  .00015640  00000+0  10682-2 0  9996
2 47796  53.0549 164.1283 0001624 105.1016 255.0153 15.06341780242546
STARLINK-2377           
1 47797U 21018L   25207.65090101 -.00000597  00000+0 -21181-4 0  9993
2 47797  53.0545 191.3450 0001205  73.0812 287.0309 15.06400880242458
STARLINK-2379           
1 47798U 21018M   25208.15632744  .00000245  00000+0  35308-4 0  9999
2 47798  53.0541 164.0776 0001464  92.0802 268.0354 15.06405068242531
STARLINK-2380           
1 47799U 21018N   25207.88725861  .00000325  00000+0  40698-4 0  9999
2 47799  53.0540 165.2823 0001298  82.5363 277.5773 15.06400469242831
STARLINK-2381           
1 47800U 21018P   25207.31225852 -.00001234  00000+0 -64002-4 0  9992
2 47800  53.0544 167.8687 0001178  82.6599 277.4523 15.06390724242758
STARLINK-2383           
1 47802U 21018R   25207.65827650 -.00000809  00000+0 -35438-4 0  9993
2 47802  53.0552 191.3157 0001145  79.0448 281.0669 15.06389803242466
STARLINK-2385           
1 47804U 21018T   25208.20056745  .00001003  00000+0  86196-4 0  9998
2 47804  53.0544 163.8781 0001366  85.7344 274.3801 15.06398295242547
STARLINK-2386           
1 47805U 21018U   25208.16742056  .00000719  00000+0  67157-4 0  9990
2 47805  53.0539 164.2702 0001399  90.4427 269.6723 15.06401211242533
STARLINK-2387           
1 47806U 21018V   25208.17153891  .00000143  00000+0  28485-4 0  9997
2 47806  53.0547 179.0196 0001511  81.9078 278.2082 15.06397803242330
STARLINK-2388           
1 47807U 21018W   25208.16093481 -.00000136  00000+0  97973-5 0  9997
2 47807  53.0548 154.0594 0001409  85.3606 274.7544 15.06401696242686
STARLINK-2389           
1 47808U 21018X   25207.65919889  .00000665  00000+0  63542-4 0  9990
2 47808  53.0542 181.3073 0001357  82.6121 277.5022 15.06394354242651
STARLINK-2391           
1 47810U 21018Z   25207.68914701  .00000534  00000+0  54731-4 0  9999
2 47810  53.0543 196.1748 0001241  80.1075 280.0054 15.06392087242443
STARLINK-2393           
1 47812U 21018AB  25208.23097855 -.00000836  00000+0 -37259-4 0  9998
2 47812  53.0539 193.7425 0001249  83.2386 276.8745 15.06394395242121
STARLINK-2395           
1 47814U 21018AD  25207.64214877 -.00001245  00000+0 -64700-4 0  9995
2 47814  53.0556 186.3880 0001378  79.6063 280.5081 15.06394935242584
STARLINK-2396           
1 47815U 21018AE  25207.34220469 -.00001006  00000+0 -48679-4 0  9999
2 47815  53.0539 182.7351 0000889  73.3795 286.7292 15.06390530242543
STARLINK-2399           
1 47816U 21018AF  25208.21346037 -.00000233  00000+0  32336-5 0  9991
2 47816  53.0540 183.8174 0001275  78.1262 281.9869 15.06399230242276
STARLINK-2400           
1 47817U 21018AG  25208.23189024  .00000032  00000+0  21067-4 0  9999
2 47817  53.0543 183.7379 0001226  69.6557 290.4564 15.06401804242272
STARLINK-2401           
1 47818U 21018AH  25208.23701554 -.00002296  00000+0 -13532-3 0  9991
2 47818  53.0542 189.1818 0001434  93.4227 266.6926 15.06389362242204
STARLINK-2402           
1 47819U 21018AJ  25208.23464300  .00001543  00000+0  12253-3 0  9998
2 47819  53.0540 183.7160 0001370  93.2375 266.8771 15.06385284242281
STARLINK-2406           
1 47821U 21018AL  25207.92965666 -.00000620  00000+0 -22768-4 0  9997
2 47821  53.0553 185.1052 0001397  86.0642 274.0506 15.06390923242564
STARLINK-2407           
1 47822U 21018AM  25207.67345624 -.00000361  00000+0 -53122-5 0  9997
2 47822  53.0541 196.2372 0001294  74.4415 285.6717 15.06396079242396
STARLINK-2408           
1 47823U 21018AN  25208.21989363  .00000148  00000+0  28804-4 0  9992
2 47823  53.0544 183.7820 0000954  79.2026 280.9070 15.06398413242273
STARLINK-2409           
1 47824U 21018AP  25207.67900541  .00000792  00000+0  72047-4 0  9996
2 47824  53.0540 186.2187 0001282  67.9920 292.1205 15.06397780242525
STARLINK-2410           
1 47825U 21018AQ  25208.22822444 -.00001992  00000+0 -11492-3 0  9995
2 47825  53.0539 183.7544 0001195  83.2623 276.8501 15.06386425242271
STARLINK-2411           
1 47826U 21018AR  25208.22452533 -.00001617  00000+0 -89657-4 0  9997
2 47826  53.0539 183.7730 0001590  46.9754 313.1368 15.06398145242277
STARLINK-2413           
1 47827U 21018AS  25207.87531452 -.00000590  00000+0 -20752-4 0  9996
2 47827  53.0542 175.5806 0001314  84.9673 275.1466 15.06399238242754
